[{"OBJECT_NAME":"STARLINK-34148","OBJECT_ID":"2025-110R","EPOCH":"2026-03-09T07:09:25.099488","MEAN_MOTION":15.30202129,"ECCENTRICITY":0.00013984,"INCLINATION":53.1605,"RA_OF_ASC_NODE":28.5011,"ARG_OF_PERICENTER":85.5647,"MEAN_ANOMALY":274.5513,"EPHEMERIS_TYPE":0,"CLASSIFICATION_TYPE":"U","NORAD_CAT_ID":64111,"ELEMENT_SET_NO":999,"REV_AT_EPOCH":4582,"BSTAR":0.00055698401,"MEAN_MOTION_DOT":0.00016174,"MEAN_MOTION_DDOT":0},{"OBJECT_NAME":"FENGYUN 1C DEB","OBJECT_ID":"1999-025EGV","EPOCH":"2026-02-28T16:17:34.017216","MEAN_MOTION":14.9983724,"ECCENTRICITY":0.01801634,"INCLINATION":98.631,"RA_OF_ASC_NODE":214.8944,"ARG_OF_PERICENTER":42.5154,"MEAN_ANOMALY":318.9857,"EPHEMERIS_TYPE":0,"CLASSIFICATION_TYPE":"U","NORAD_CAT_ID":37427,"ELEMENT_SET_NO":999,"REV_AT_EPOCH":61490,"BSTAR":0.00040638516,"MEAN_MOTION_DOT":7.014e-5,"MEAN_MOTION_DDOT":0}]
